0 TITAN 3C TRANSTAGE DEB
1 19592U 65108AA  13280.22326889  .00000065  00000-0  60752-3 0  9400
2 19592 026.6796 131.7254 6737561 356.9817 305.2690 02.80721398214597
0 TITAN 3C TRANSTAGE DEB
1 19592U 65108AA  13283.83982798  .00000018  00000-0  49914-3 0  9413
2 19592 026.7040 130.1244 6737113 359.6650 000.1508 02.80723139214707
0 TITAN 3C TRANSTAGE DEB
1 19592U 65108AA  13284.06512856  .00000100  00000-0  10470-2 0  9420
2 19592 026.6856 130.0146 6736370 359.8481 227.8337 02.80722428214707
0 TITAN 3C TRANSTAGE DEB
1 19592U 65108AA  13286.70002008  .00000148  00000-0  10152-2 0  9436
2 19592 026.6893 128.8431 6735678 001.8109 010.6504 02.80723771214785
0 TITAN 3C TRANSTAGE DEB
1 19592U 65108AA  13294.14437264 -.00000005  00000-0  48826-3 0  9443
2 19592 026.6946 125.5361 6734024 007.3481 333.9547 02.80727246214990
